{
  "norad_id": 64779,
  "name": "STARLINK-34585",
  "history": [
    {
      "epoch": "2026-03-28T21:23:09.615264Z",
      "apogee_km": 476.0774810788171,
      "perigee_km": 474.295616956073,
      "latitude_deg": 2.993136392194505e-05,
      "longitude_deg": 6.313530791584264,
      "height_km": 476.11372613362335,
      "semi_major_axis_km": 6853.323549017445,
      "eccentricity": 0.00013,
      "inclination_deg": 53.1605,
      "raan_deg": 153.4086,
      "arg_perigee_deg": 91.8711,
      "mean_anomaly_deg": 268.2439,
      "mean_motion_rev_day": 15.30209552
    }
  ]
}